M2 PATHFINDER           
1 45727U 20037E   20191.28067264  .00000089  00000-0  14496-4 0  9990
2 45727  97.7008  10.9090 0011915 222.9942 137.0301 14.91205177  1276
